$$SOE
2460721.500000000, A.D. 2025-Feb-15 00:00:00.0000, 3.357015745412050E+08, -2.744917040011121E+08, 2.559407064434537E+07,
2460728.500000000, A.D. 2025-Feb-22 00:00:00.0000, 3.408195587701851E+08, -2.665058312733991E+08, 2.577969647313645E+07,
2460735.500000000, A.D. 2025-Mar-01 00:00:00.0000, 3.457343249984898E+08, -2.583611106356669E+08, 2.594994968027274E+07,
2460742.500000000, A.D. 2025-Mar-08 00:00:00.0000, 3.504414687919903E+08, -2.500612947777394E+08, 2.610461756529576E+07,
2460749.500000000, A.D. 2025-Mar-15 00:00:00.0000, 3.549365790256417E+08, -2.416102328976097E+08, 2.624348860125497E+07,
2460756.500000000, A.D. 2025-Mar-22 00:00:00.0000, 3.592152353408503E+08, -2.330118750689229E+08, 2.636635274000014E+07,
2460763.500000000, A.D. 2025-Mar-29 00:00:00.0000, 3.632730071522347E+08, -2.242702790860741E+08, 2.647300142361623E+07,
2460770.500000000, A.D. 2025-Apr-05 00:00:00.0000, 3.671054545427511E+08, -2.153896166540424E+08, 2.656322752918256E+07,
2460777.500000000, A.D. 2025-Apr-12 00:00:00.0000, 3.707081291372537E+08, -2.063741788256516E+08, 2.663682543290807E+07,
2460784.500000000, A.D. 2025-Apr-19 00:00:00.0000, 3.740765747843768E+08, -1.972283815744882E+08, 2.669359113975166E+07,
2460791.500000000, A.D. 2025-Apr-26 00:00:00.0000, 3.772063283368053E+08, -1.879567717130142E+08, 2.673332243804803E+07,
2460798.500000000, A.D. 2025-May-03 00:00:00.0000, 3.800929206637819E+08, -1.785640331429129E+08, 2.675581907145797E+07,
2460805.500000000, A.D. 2025-May-10 00:00:00.0000, 3.827318779465495E+08, -1.690549934350617E+08, 2.676088292768630E+07,
2460812.500000000, A.D. 2025-May-17 00:00:00.0000, 3.851187233173152E+08, -1.594346307860944E+08, 2.674831823872084E+07,
2460819.500000000, A.D. 2025-May-24 00:00:00.0000, 3.872489790407872E+08, -1.497080814111851E+08, 2.671793177362343E+07,
2460826.500000000, A.D. 2025-May-31 00:00:00.0000, 3.891181696832284E+08, -1.398806470652444E+08, 2.666953301247521E+07,
2460833.500000000, A.D. 2025-Jun-07 00:00:00.0000, 3.907218259003001E+08, -1.299578014897845E+08, 2.660293443900182E+07,
2460840.500000000, A.D. 2025-Jun-14 00:00:00.0000, 3.920554865160573E+08, -1.199451964564134E+08, 2.651795211727655E+07,
2460847.500000000, A.D. 2025-Jun-21 00:00:00.0000, 3.931147001460639E+08, -1.098486706826154E+08, 2.641440617601492E+07,
2460854.500000000, A.D. 2025-Jun-28 00:00:00.0000, 3.938950295288618E+08, -9.967425985561553E+07, 2.629212105973324E+07,
2460861.500000000, A.D. 2025-Jul-05 00:00:00.0000, 3.943920570887544E+08, -8.942820560593201E+07, 2.615092586439486E+07,
2460868.500000000, A.D. 2025-Jul-12 00:00:00.0000, 3.946013905812973E+08, -7.911696423186299E+07, 2.599065480324128E+07,
2460875.500000000, A.D. 2025-Jul-19 00:00:00.0000, 3.945186690562389E+08, -6.874721574161588E+07, 2.581114774063092E+07,
2460882.500000000, A.D. 2025-Jul-26 00:00:00.0000, 3.941395693983091E+08, -5.832587325654852E+07, 2.561225077271861E+07,
2460889.500000000, A.D. 2025-Aug-02 00:00:00.0000, 3.934598135686656E+08, -4.786009273748352E+07, 2.539381685440800E+07,
2460896.500000000, A.D. 2025-Aug-09 00:00:00.0000, 3.924751766339089E+08, -3.735728303038017E+07, 2.515570647369938E+07,
2460903.500000000, A.D. 2025-Aug-16 00:00:00.0000, 3.911814957268042E+08, -2.682511627410964E+07, 2.489778836587133E+07,
2460910.500000000, A.D. 2025-Aug-23 00:00:00.0000, 3.895746802995743E+08, -1.627153862942316E+07, 2.461994024618743E+07,
2460917.500000000, A.D. 2025-Aug-30 00:00:00.0000, 3.876507240671165E+08, -5.704780582868167E+06, 2.432204959294505E+07,
2460924.500000000, A.D. 2025-Sep-06 00:00:00.0000, 3.854057172962260E+08, 4.866634216881136E+06, 2.400401469707373E+07,
2460931.500000000, A.D. 2025-Sep-13 00:00:00.0000, 3.828358578528922E+08, 1.543387915483307E+07, 2.366574593380697E+07,
2460938.500000000, A.D. 2025-Sep-20 00:00:00.0000, 3.799374643626618E+08, 2.598781228629033E+07, 2.330716682583549E+07,
2460945.500000000, A.D. 2025-Sep-27 00:00:00.0000, 3.767069926229655E+08, 3.651896459163489E+07, 2.292821505857983E+07,
2460952.500000000, A.D. 2025-Oct-04 00:00:00.0000, 3.731410533354914E+08, 4.701752946706587E+07, 2.252884368052286E+07,
2460959.500000000, A.D. 2025-Oct-11 00:00:00.0000, 3.692364308728095E+08, 5.747335259929669E+07, 2.210902244970654E+07,
2460966.500000000, A.D. 2025-Oct-18 00:00:00.0000, 3.649901034522389E+08, 6.787592205542256E+07, 2.166873928164854E+07,
2460973.500000000, A.D. 2025-Oct-25 00:00:00.0000, 3.603992649472394E+08, 7.821435872081645E+07, 2.120800179039101E+07,
2460980.500000000, A.D. 2025-Nov-01 00:00:00.0000, 3.554613484674301E+08, 8.847740723944117E+07, 2.072683892386908E+07,
2460987.500000000, A.D. 2025-Nov-08 00:00:00.0000, 3.501740518328470E+08, 9.865342758183372E+07, 2.022530269117128E+07,
2460994.500000000, A.D. 2025-Nov-15 00:00:00.0000, 3.445353651784822E+08, 1.087303873574215E+08, 1.970346996610019E+07,
2461001.500000000, A.D. 2025-Nov-22 00:00:00.0000, 3.385436011728562E+08, 1.186958552851821E+08, 1.916144434957986E+07,
2461008.500000000, A.D. 2025-Nov-29 00:00:00.0000, 3.321974277637143E+08, 1.285369971731941E+08, 1.859935819740573E+07,
2461015.500000000, A.D. 2025-Dec-06 00:00:00.0000, 3.254959012270288E+08, 1.382405745169812E+08, 1.801737501063096E+07,
2461022.500000000, A.D. 2025-Dec-13 00:00:00.0000, 3.184385000013354E+08, 1.477929426184014E+08, 1.741569187260272E+07,
2461029.500000000, A.D. 2025-Dec-20 00:00:00.0000, 3.110251628256716E+08, 1.571800495397244E+08, 1.679454169168867E+07,
2461036.500000000, A.D. 2025-Dec-27 00:00:00.0000, 3.032563301010198E+08, 1.663874388047301E+08, 1.615419555351309E+07,
2461043.500000000, A.D. 2026-Jan-03 00:00:00.0000, 2.951329869829177E+08, 1.754002555821633E+08, 1.549496525837018E+07,
2461050.500000000, A.D. 2026-Jan-10 00:00:00.0000, 2.866567082488618E+08, 1.842032560501720E+08, 1.481720596795457E+07,
2461057.500000000, A.D. 2026-Jan-17 00:00:00.0000, 2.778297050655342E+08, 1.927808202527024E+08, 1.412131891922246E+07,
2461064.500000000, A.D. 2026-Jan-24 00:00:00.0000, 2.686548735776718E+08, 2.011169688960785E+08, 1.340775418330763E+07,
2461071.500000000, A.D. 2026-Jan-31 00:00:00.0000, 2.591358451300400E+08, 2.091953845236925E+08, 1.267701344618413E+07,
2461078.500000000, A.D. 2026-Feb-07 00:00:00.0000, 2.492770379086980E+08, 2.169994374721647E+08, 1.192965277610059E+07,
2461085.500000000, A.D. 2026-Feb-14 00:00:00.0000, 2.390837099091840E+08, 2.245122170640264E+08, 1.116628532424162E+07,
2461092.500000000, A.D. 2026-Feb-21 00:00:00.0000, 2.285620131974574E+08, 2.317165690837396E+08, 1.038758393593080E+07,
2461099.500000000, A.D. 2026-Feb-28 00:00:00.0000, 2.177190478665535E+08, 2.385951411433906E+08, 9.594283825707346E+06,
2461106.500000000, A.D. 2026-Mar-07 00:00:00.0000, 2.065629130165855E+08, 2.451304344238924E+08, 8.787185301332086E+06,
2461113.500000000, A.D. 2026-Mar-14 00:00:00.0000, 1.951027568374463E+08, 2.513048598712851E+08, 7.967156042885825E+06,
2461120.500000000, A.D. 2026-Mar-21 00:00:00.0000, 1.833488267854176E+08, 2.571008020914664E+08, 7.135132953595549E+06,
2461127.500000000, A.D. 2026-Mar-28 00:00:00.0000, 1.713125169393215E+08, 2.625006922349272E+08, 6.292123788141444E+06,
2461134.500000000, A.D. 2026-Apr-04 00:00:00.0000, 1.590064109239275E+08, 2.674870890716939E+08, 5.439208467563614E+06,
2461141.500000000, A.D. 2026-Apr-11 00:00:00.0000, 1.464443195647837E+08, 2.720427679402873E+08, 4.577539954870477E+06,
2461148.500000000, A.D. 2026-Apr-18 00:00:00.0000, 1.336413122303945E+08, 2.761508174692100E+08, 3.708344603284568E+06,
2461155.500000000, A.D. 2026-Apr-25 00:00:00.0000, 1.206137406341996E+08, 2.797947438364938E+08, 2.832921901704878E+06,
2461162.500000000, A.D. 2026-May-02 00:00:00.0000, 1.073792538147644E+08, 2.829585821069436E+08, 1.952643540497079E+06,
2461169.500000000, A.D. 2026-May-09 00:00:00.0000, 9.395680309423341E+07, 2.856270139345522E+08, 1.068951710079238E+06,
2461176.500000000, A.D. 2026-May-16 00:00:00.0000, 8.036663608099891E+07, 2.877854908819708E+08, 1.833565412823111E+05,
2461183.500000000, A.D. 2026-May-23 00:00:00.0000, 6.663027850562193E+07, 2.894203632428203E+08, -7.025672952923030E+05,
2461190.500000000, A.D. 2026-May-30 00:00:00.0000, 5.277050064615577E+07, 2.905190132841953E+08, -1.587184666332796E+06,
2461197.500000000, A.D. 2026-Jun-06 00:00:00.0000, 3.881126699035887E+07, 2.910699879651874E+08, -2.468805003720149E+06,
2461204.500000000, A.D. 2026-Jun-13 00:00:00.0000, 2.477767196032304E+07, 2.910631294456579E+08, -3.345688621827006E+06,
2461211.500000000, A.D. 2026-Jun-20 00:00:00.0000, 1.069586063284783E+07, 2.904897042102771E+08, -4.216054041279018E+06,
2461218.500000000, A.D. 2026-Jun-27 00:00:00.0000, -3.407067505903530E+06, 2.893425281632425E+08, -5.078086169955969E+06,
2461225.500000000, A.D. 2026-Jul-04 00:00:00.0000, -1.750317168484262E+07, 2.876160844802601E+08, -5.929945357844025E+06,
2461232.500000000, A.D. 2026-Jul-11 00:00:00.0000, -3.156379911349607E+07, 2.853066315757194E+08, -6.769777287308723E+06,
2461239.500000000, A.D. 2026-Jul-18 00:00:00.0000, -4.555972938572585E+07, 2.824122986977751E+08, -7.595723606210917E+06,
2461246.500000000, A.D. 2026-Jul-25 00:00:00.0000, -5.946133264695974E+07, 2.789331667187975E+08, -8.405933180716127E+06,
2461253.500000000, A.D. 2026-Aug-01 00:00:00.0000, -7.323873968931045E+07, 2.748713318027161E+08, -9.198573826321289E+06,
2461260.500000000, A.D. 2026-Aug-08 00:00:00.0000, -8.686202155673577E+07, 2.702309498968129E+08, -9.971844368025005E+06,
2461267.500000000, A.D. 2026-Aug-15 00:00:00.0000, -1.003013756697274E+08, 2.650182608223673E+08, -1.072398684135678E+07,
2461274.500000000, A.D. 2026-Aug-22 00:00:00.0000, -1.135273163457850E+08, 2.592415919336061E+08, -1.145329846340705E+07,
2461281.500000000, A.D. 2026-Aug-29 00:00:00.0000, -1.265108688798764E+08, 2.529113392111734E+08, -1.215814306992048E+07,
2461288.500000000, A.D. 2026-Sep-05 00:00:00.0000, -1.392237617747449E+08, 2.460399226711355E+08, -1.283696223852809E+07,
$$EOE